{"type": "FeatureCollection", "features": [ {"type": "Feature", "properties": {"norad_id": 43262, "name": "GAOFEN-1 04", "group": "resource", "lat": 52.32394917657514, "lon": 25.17418845909659, "alt_km": 634.8425240722227, "timestamp": "2025-12-03T22:42:32.314304+00:00", "meta": {"OBJECT_NAME": "GAOFEN-1 04", "OBJECT_ID": "2018-031D", "EPOCH": "2025-12-03T12:42:36.880992", "MEAN_MOTION": 14.76418274, "ECCENTRICITY": 0.0001343, "INCLINATION": 98.0821, "RA_OF_ASC_NODE": 35.3609, "ARG_OF_PERICENTER": 62.4218, "MEAN_ANOMALY": 297.7128, "EPHEMERIS_TYPE": 0, "CLASSIFICATION_TYPE": "U", "NORAD_CAT_ID": 43262, "ELEMENT_SET_NO": 999, "REV_AT_EPOCH": 41381, "BSTAR": 0.0002218, "MEAN_MOTION_DOT": 1.49e-05, "MEAN_MOTION_DDOT": 0}, "tle": {"line1": "1 43262U 18031D   25337.52959353  .00001490  00000+0  22180-3 0  9990", "line2": "2 43262  98.0821  35.3609 0001343  62.4218 297.7128 14.76418274413814"}}, "geometry": {"type": "Point", "coordinates": [25.17418845909659, 52.32394917657514]}}, {"type": "Feature", "properties": {"norad_id": 43437, "name": "SENTINEL-3B", "group": "resource", "lat": -9.571901645537325, "lon": 44.72418683848943, "alt_km": 807.2689143787411, "timestamp": "2025-12-03T22:42:32.314322+00:00", "meta": {"OBJECT_NAME": "SENTINEL-3B", "OBJECT_ID": "2018-039A", "EPOCH": "2025-12-03T10:58:20.756352", "MEAN_MOTION": 14.26736911, "ECCENTRICITY": 0.0001465, "INCLINATION": 98.628, "RA_OF_ASC_NODE": 42.775, "ARG_OF_PERICENTER": 111.8158, "MEAN_ANOMALY": 248.3178, "EPHEMERIS_TYPE": 0, "CLASSIFICATION_TYPE": "U", "NORAD_CAT_ID": 43437, "ELEMENT_SET_NO": 999, "REV_AT_EPOCH": 39621, "BSTAR": 0.00011602, "MEAN_MOTION_DOT": 2.37e-06, "MEAN_MOTION_DDOT": 0}, "tle": {"line1": "1 43437U 18039A   25337.45718468  .00000237  00000+0  11602-3 0  9999", "line2": "2 43437  98.6280  42.7750 0001465 111.8158 248.3178 14.26736911396216"}}, "geometry": {"type": "Point", "coordinates": [44.72418683848943, -9.571901645537325]}}, {"type": "Feature", "properties": {"norad_id": 43461, "name": "GAOFEN-5 01", "group": "resource", "lat": -4.617229488350558, "lon": -58.553007992983524, "alt_km": 694.3882249192511, "timestamp": "2025-12-03T22:42:32.314332+00:00", "meta": {"OBJECT_NAME": "GAOFEN-5 01", "OBJECT_ID": "2018-043A", "EPOCH": "2025-12-03T11:13:11.097120", "MEAN_MOTION": 14.6039253, "ECCENTRICITY": 0.0001564, "INCLINATION": 98.4313, "RA_OF_ASC_NODE": 300.2737, "ARG_OF_PERICENTER": 10.1795, "MEAN_ANOMALY": 349.9435, "EPHEMERIS_TYPE": 0, "CLASSIFICATION_TYPE": "U", "NORAD_CAT_ID": 43461, "ELEMENT_SET_NO": 999, "REV_AT_EPOCH": 40312, "BSTAR": 0.00016889, "MEAN_MOTION_DOT": 7.69e-06, "MEAN_MOTION_DDOT": 0}, "tle": {"line1": "1 43461U 18043A   25337.46748955  .00000769  00000+0  16889-3 0  9998", "line2": "2 43461  98.4313 300.2737 0001564  10.1795 349.9435 14.60392530403129"}}, "geometry": {"type": "Point", "coordinates": [-58.553007992983524, -4.617229488350558]}}, {"type": "Feature", "properties": {"norad_id": 43484, "name": "GAOFEN-6", "group": "resource", "lat": -20.849791035178654, "lon": -140.4861074624529, "alt_km": 648.9627533046569, "timestamp": "2025-12-03T22:42:32.314341+00:00", "meta": {"OBJECT_NAME": "GAOFEN-6", "OBJECT_ID": "2018-048A", "EPOCH": "2025-12-03T12:02:40.452576", "MEAN_MOTION": 14.76536863, "ECCENTRICITY": 0.0013319, "INCLINATION": 97.8044, "RA_OF_ASC_NODE": 42.0787, "ARG_OF_PERICENTER": 90.969, "MEAN_ANOMALY": 269.3046, "EPHEMERIS_TYPE": 0, "CLASSIFICATION_TYPE": "U", "NORAD_CAT_ID": 43484, "ELEMENT_SET_NO": 999, "REV_AT_EPOCH": 40451, "BSTAR": 8.8189e-05, "MEAN_MOTION_DOT": 5.66e-06, "MEAN_MOTION_DDOT": 0}, "tle": {"line1": "1 43484U 18048A   25337.50185709  .00000566  00000+0  88189-4 0  9993", "line2": "2 43484  97.8044  42.0787 0013319  90.9690 269.3046 14.76536863404518"}}, "geometry": {"type": "Point", "coordinates": [-140.4861074624529, -20.849791035178654]}}, {"type": "Feature", "properties": {"norad_id": 43585, "name": "GAOFEN-11 01", "group": "resource", "lat": -56.103693057983016, "lon": -149.82408328755412, "alt_km": 428.68624475572324, "timestamp": "2025-12-03T22:42:32.314351+00:00", "meta": {"OBJECT_NAME": "GAOFEN-11 01", "OBJECT_ID": "2018-063A", "EPOCH": "2025-12-03T12:23:10.454208", "MEAN_MOTION": 15.48818106, "ECCENTRICITY": 0.0004978, "INCLINATION": 97.1581, "RA_OF_ASC_NODE": 40.5303, "ARG_OF_PERICENTER": 353.3447, "MEAN_ANOMALY": 6.7738, "EPHEMERIS_TYPE": 0, "CLASSIFICATION_TYPE": "U", "NORAD_CAT_ID": 43585, "ELEMENT_SET_NO": 999, "REV_AT_EPOCH": 40999, "BSTAR": 0.0003517, "MEAN_MOTION_DOT": 0.00018847, "MEAN_MOTION_DDOT": 0}, "tle": {"line1": "1 43585U 18063A   25337.51609322  .00018847  00000+0  35170-3 0  9997", "line2": "2 43585  97.1581  40.5303 0004978 353.3447   6.7738 15.48818106409994"}}, "geometry": {"type": "Point", "coordinates": [-149.82408328755412, -56.103693057983016]}}, {"type": "Feature", "properties": {"norad_id": 43613, "name": "ICESAT-2", "group": "resource", "lat": -86.74198410759705, "lon": -83.64049030421569, "alt_km": 488.7485341735537, "timestamp": "2025-12-03T22:42:32.314360+00:00", "meta": {"OBJECT_NAME": "ICESAT-2", "OBJECT_ID": "2018-070A", "EPOCH": "2025-12-03T12:05:25.563840", "MEAN_MOTION": 15.28224846, "ECCENTRICITY": 3.27e-05, "INCLINATION": 92.0056, "RA_OF_ASC_NODE": 238.2439, "ARG_OF_PERICENTER": 122.3, "MEAN_ANOMALY": 237.8281, "EPHEMERIS_TYPE": 0, "CLASSIFICATION_TYPE": "U", "NORAD_CAT_ID": 43613, "ELEMENT_SET_NO": 999, "REV_AT_EPOCH": 40257, "BSTAR": 0.00066112, "MEAN_MOTION_DOT": 0.00018192, "MEAN_MOTION_DDOT": 0}, "tle": {"line1": "1 43613U 18070A   25337.50376810  .00018192  00000+0  66112-3 0  9992", "line2": "2 43613  92.0056 238.2439 0000327 122.3000 237.8281 15.28224846402573"}}, "geometry": {"type": "Point", "coordinates": [-83.64049030421569, -86.74198410759705]}}, {"type": "Feature", "properties": {"norad_id": 43719, "name": "HYSIS", "group": "resource", "lat": 9.34179790023979, "lon": -137.70567236197866, "alt_km": 635.7606005956823, "timestamp": "2025-12-03T22:42:32.314369+00:00", "meta": {"OBJECT_NAME": "HYSIS", "OBJECT_ID": "2018-096A", "EPOCH": "2025-12-03T10:34:18.118272", "MEAN_MOTION": 14.78598612, "ECCENTRICITY": 0.0001613, "INCLINATION": 98.0112, "RA_OF_ASC_NODE": 40.4635, "ARG_OF_PERICENTER": 67.1703, "MEAN_ANOMALY": 292.9678, "EPHEMERIS_TYPE": 0, "CLASSIFICATION_TYPE": "U", "NORAD_CAT_ID": 43719, "ELEMENT_SET_NO": 999, "REV_AT_EPOCH": 37849, "BSTAR": 2.719e-05, "MEAN_MOTION_DOT": 1.47e-06, "MEAN_MOTION_DDOT": 0}, "tle": {"line1": "1 43719U 18096A   25337.44048748  .00000147  00000+0  27190-4 0  9991", "line2": "2 43719  98.0112  40.4635 0001613  67.1703 292.9678 14.78598612378499"}}, "geometry": {"type": "Point", "coordinates": [-137.70567236197866, 9.34179790023979]}}, {"type": "Feature", "properties": {"norad_id": 43783, "name": "KAZSTSAT", "group": "resource", "lat": 66.21522554706229, "lon": -149.20634611051818, "alt_km": 564.1438758158292, "timestamp": "2025-12-03T22:42:32.314379+00:00", "meta": {"OBJECT_NAME": "KAZSTSAT", "OBJECT_ID": "2018-099AB", "EPOCH": "2025-12-03T09:23:41.474400", "MEAN_MOTION": 14.99300717, "ECCENTRICITY": 0.0006531, "INCLINATION": 97.4553, "RA_OF_ASC_NODE": 12.9784, "ARG_OF_PERICENTER": 4.7041, "MEAN_ANOMALY": 355.4243, "EPHEMERIS_TYPE": 0, "CLASSIFICATION_TYPE": "U", "NORAD_CAT_ID": 43783, "ELEMENT_SET_NO": 999, "REV_AT_EPOCH": 38196, "BSTAR": 0.00023582, "MEAN_MOTION_DOT": 2.825e-05, "MEAN_MOTION_DDOT": 0}, "tle": {"line1": "1 43783U 18099AB  25337.39145225  .00002825  00000+0  23582-3 0  9992", "line2": "2 43783  97.4553  12.9784 0006531   4.7041 355.4243 14.99300717381966"}}, "geometry": {"type": "Point", "coordinates": [-149.20634611051818, 66.21522554706229]}}, {"type": "Feature", "properties": {"norad_id": 43831, "name": "SAUDISAT 5A", "group": "resource", "lat": 54.97767342064441, "lon": 27.71274148658403, "alt_km": 478.67410955416835, "timestamp": "2025-12-03T22:42:32.314388+00:00", "meta": {"OBJECT_NAME": "SAUDISAT 5A", "OBJECT_ID": "2018-102A", "EPOCH": "2025-12-03T13:01:12.813888", "MEAN_MOTION": 15.25472342, "ECCENTRICITY": 0.0011795, "INCLINATION": 97.3374, "RA_OF_ASC_NODE": 37.9123, "ARG_OF_PERICENTER": 104.4642, "MEAN_ANOMALY": 255.7905, "EPHEMERIS_TYPE": 0, "CLASSIFICATION_TYPE": "U", "NORAD_CAT_ID": 43831, "ELEMENT_SET_NO": 999, "REV_AT_EPOCH": 38582, "BSTAR": 0.00035748, "MEAN_MOTION_DOT": 8.996e-05, "MEAN_MOTION_DDOT": 0}, "tle": {"line1": "1 43831U 18102A   25337.54250942  .00008996  00000+0  35748-3 0  9993", "line2": "2 43831  97.3374  37.9123 0011795 104.4642 255.7905 15.25472342385827"}}, "geometry": {"type": "Point", "coordinates": [27.71274148658403, 54.97767342064441]}}, {"type": "Feature", "properties": {"norad_id": 43833, "name": "SAUDISAT 5B", "group": "resource", "lat": 79.97347544124177, "lon": -92.10333230948662, "alt_km": 472.427500687264, "timestamp": "2025-12-03T22:42:32.314399+00:00", "meta": {"OBJECT_NAME": "SAUDISAT 5B", "OBJECT_ID": "2018-102C", "EPOCH": "2025-12-03T12:50:35.427264", "MEAN_MOTION": 15.25830217, "ECCENTRICITY": 0.0012479, "INCLINATION": 97.3468, "RA_OF_ASC_NODE": 40.627, "ARG_OF_PERICENTER": 107.0302, "MEAN_ANOMALY": 253.2305, "EPHEMERIS_TYPE": 0, "CLASSIFICATION_TYPE": "U", "NORAD_CAT_ID": 43833, "ELEMENT_SET_NO": 999, "REV_AT_EPOCH": 38593, "BSTAR": 0.00036555, "MEAN_MOTION_DOT": 9.303e-05, "MEAN_MOTION_DDOT": 0}, "tle": {"line1": "1 43833U 18102C   25337.53513226  .00009303  00000+0  36555-3 0  9991", "line2": "2 43833  97.3468  40.6270 0012479 107.0302 253.2305 15.25830217385937"}}, "geometry": {"type": "Point", "coordinates": [-92.10333230948662, 79.97347544124177]}}]}